STARLINK-1917
1 16767C 20074AE  21326.13696816  .00005521  00000-0  36980-3 0  3263
2 16767  53.0507 178.1229 0002177  81.9978 143.4773 15.06402968    12
